[Satellite]
VERSION=1.1
NAME=SL-8 R/B
NICKNAME=SL-8 R/B
TLE1=1 07004U 73107B   17186.09227530  .00005151  00000-0  76865-4 0  9998
TLE2=2 07004  73.9346  24.3019 0176788 249.3946 108.8223 15.39378823239959
